[{"OBJECT_NAME":"FORMOSAT 7-5","OBJECT_ID":"2019-036V","EPOCH":"2026-03-09T18:30:55.543680","MEAN_MOTION":14.96027232,"ECCENTRICITY":8.716e-5,"INCLINATION":23.9972,"RA_OF_ASC_NODE":218.3817,"ARG_OF_PERICENTER":89.5193,"MEAN_ANOMALY":270.5408,"EPHEMERIS_TYPE":0,"CLASSIFICATION_TYPE":"U","NORAD_CAT_ID":44358,"ELEMENT_SET_NO":999,"REV_AT_EPOCH":36744,"BSTAR":0.00030916132,"MEAN_MOTION_DOT":3.857e-5,"MEAN_MOTION_DDOT":0},{"OBJECT_NAME":"STARLINK-6210","OBJECT_ID":"2023-064AP","EPOCH":"2026-03-09T13:19:56.082144","MEAN_MOTION":14.98328019,"ECCENTRICITY":0.0003351,"INCLINATION":69.9996,"RA_OF_ASC_NODE":124.6164,"ARG_OF_PERICENTER":268.0882,"MEAN_ANOMALY":91.9893,"EPHEMERIS_TYPE":0,"CLASSIFICATION_TYPE":"U","NORAD_CAT_ID":56485,"ELEMENT_SET_NO":999,"REV_AT_EPOCH":15572,"BSTAR":-4.4768e-5,"MEAN_MOTION_DOT":-6.27e-6,"MEAN_MOTION_DDOT":0}]
